OBJECT_NAME,OBJECT_ID,EPOCH,MEAN_MOTION,ECCENTRICITY,INCLINATION,RA_OF_ASC_NODE,ARG_OF_PERICENTER,MEAN_ANOMALY,EPHEMERIS_TYPE,CLASSIFICATION_TYPE,NORAD_CAT_ID,ELEMENT_SET_NO,REV_AT_EPOCH,BSTAR,MEAN_MOTION_DOT,MEAN_MOTION_DDOT
QIANFAN-236,2026-155T,2026-07-15T13:45:39.561120,14.26769160,.0030182,89.0066,60.9032,222.5620,137.3235,0,U,69865,999,143,.93596337E-4,.242E-5,0
QIANFAN-237,2026-155U,2026-07-15T13:45:34.448832,14.26777431,.00301553,89.0066,60.9032,222.5908,137.2948,0,U,69866,999,142,.88767765E-4,.23E-5,0
QIANFAN-238,2026-155V,2026-07-15T13:45:30.013920,14.26784879,.00301378,89.0066,60.9032,222.6219,137.2637,0,U,69867,999,143,.95629884E-4,.247E-5,0
STARLINK-37886,2026-157A,2026-07-15T14:00:01.999872,15.90998621,.00009592,53.1608,293.9721,61.1072,45.8754,0,U,69943,999,221,-.70608331E-2,-.2257999E-1,.13529284E-2
STARLINK-37937,2026-157B,2026-07-15T14:00:01.999872,15.91054986,.00009657,53.1608,293.9694,65.5260,42.6791,0,U,69944,999,221,-.70096327E-2,-.2248233E-1,.1342633E-2
STARLINK-37903,2026-157C,2026-07-15T14:00:01.999872,15.91511296,.00010133,53.1606,293.9535,40.7813,75.1116,0,U,69945,999,221,-.67259639E-2,-.2208975E-1,.13046914E-2
STARLINK-37905,2026-157D,2026-07-15T14:00:01.999872,15.92330809,.00013093,53.1606,293.9282,78.1921,49.8165,0,U,69946,999,221,-.64856077E-2,-.2222374E-1,.13309567E-2
STARLINK-37904,2026-157E,2026-07-15T14:00:01.999872,15.92483661,.00010289,53.1606,293.9239,49.3955,80.7217,0,U,69947,999,221,-.64089317E-2,-.22137E-1,.1323239E-2
STARLINK-37891,2026-157F,2026-07-15T14:00:01.999872,15.92601726,.00016234,53.1606,293.9166,57.4531,76.1797,0,U,69948,999,221,-.63838874E-2,-.2218793E-1,.13306571E-2
STARLINK-37923,2026-157G,2026-07-15T14:00:01.999872,15.93283789,.00010883,53.1606,293.8942,49.3412,95.0224,0,U,69949,999,221,-.61487566E-2,-.2214801E-1,.13356807E-2
STARLINK-37895,2026-157H,2026-07-15T14:00:01.999872,15.93565477,.00015034,53.1606,293.8843,80.1563,68.9383,0,U,69950,999,221,-.60573529E-2,-.2214659E-1,.13395161E-2
STARLINK-37841,2026-157J,2026-07-15T14:00:01.999872,15.93986544,.00014812,53.1604,293.8710,80.6313,74.8390,0,U,69951,999,221,-.59187493E-2,-.2212807E-1,.13434168E-2
STARLINK-37899,2026-157K,2026-07-15T14:00:01.999872,15.94431053,.00014288,53.1604,293.8560,66.9838,95.6540,0,U,69952,999,221,-.58143462E-2,-.2225676E-1,.13648379E-2
STARLINK-37900,2026-157L,2026-07-15T14:00:01.999872,15.94546357,.00014498,53.1603,293.8516,66.3385,98.4174,0,U,69953,999,221,-.5732075E-2,-.2207947E-1,.13459006E-2
STARLINK-37882,2026-157M,2026-07-15T14:00:01.999872,15.94954461,.00014315,53.1604,293.8391,66.8175,103.9166,0,U,69954,999,221,-.55764623E-2,-.2195635E-1,.13375696E-2
STARLINK-37928,2026-157N,2026-07-15T14:00:01.999872,15.94927841,.00014461,53.1603,293.8356,68.6336,103.8979,0,U,69955,999,221,-.56505594E-2,-.2221345E-1,.13671456E-2
STARLINK-37824,2026-157P,2026-07-15T14:00:01.999872,15.94946949,.00013746,53.1603,293.8340,67.0630,106.1961,0,U,69956,999,221,-.56154907E-2,-.220993E-1,.13540772E-2
STARLINK-37919,2026-157Q,2026-07-15T14:00:01.999872,15.94926363,.00014621,53.1604,293.8309,82.9682,91.7183,0,U,69957,999,221,-.56134908E-2,-.2206765E-1,.13500838E-2
STARLINK-37964,2026-157R,2026-07-15T14:00:01.999872,15.95177510,.00014497,53.1603,293.8239,86.7712,91.2524,0,U,69958,999,221,-.54594652E-2,-.2175748E-1,.13178292E-2
STARLINK-37907,2026-157S,2026-07-15T14:00:01.999872,15.95536477,.00014854,53.1603,293.8135,81.8444,101.1989,0,U,69959,999,221,-.53308462E-2,-.2166181E-1,.13119707E-2
STARLINK-37901,2026-157T,2026-07-15T14:00:01.999872,15.95735365,.00015538,53.1601,293.8055,83.1647,103.7539,0,U,69960,999,221,-.52720689E-2,-.2165532E-1,.1314082E-2
STARLINK-37910,2026-157U,2026-07-15T14:00:01.999872,15.96061072,.00014207,53.1601,293.7938,87.5973,104.9359,0,U,69961,999,221,-.5173655E-2,-.2163036E-1,.13159107E-2
STARLINK-37925,2026-157V,2026-07-15T14:00:01.999872,15.96100046,.0001407,53.1600,293.7904,82.7741,111.3749,0,U,69962,999,221,-.51801856E-2,-.2170281E-1,.13248757E-2
STARLINK-37931,2026-157W,2026-07-15T14:00:01.999872,15.96192035,.00013502,53.1599,293.7838,68.1126,129.2447,0,U,69963,999,221,-.52448003E-2,-.2207958E-1,.13704441E-2
STARLINK-37914,2026-157X,2026-07-15T14:00:01.999872,15.96842921,.00013656,53.1599,293.7643,69.7100,136.9295,0,U,69964,999,221,-.50228302E-2,-.2191418E-1,.13607911E-2
STARLINK-37840,2026-157Y,2026-07-15T14:00:01.999872,15.97079945,.00013451,53.1599,293.7552,69.6467,141.2942,0,U,69965,999,221,-.49588341E-2,-.2191903E-1,.13650071E-2
STARLINK-37894,2026-157Z,2026-07-15T14:00:01.999872,15.97088340,.00012542,53.1597,293.7505,97.0390,116.1354,0,U,69966,999,221,-.49469025E-2,-.2187658E-1,.13600905E-2
STARLINK-37875,2026-157AA,2026-07-15T14:00:01.999872,15.97459147,.00012991,53.1596,293.7397,75.6182,142.7206,0,U,69967,999,221,-.48733419E-2,-.219964E-1,.13801517E-2
