QIANFAN-236             
1 69865U 26155T   26196.57337455  .00000242  00000+0  93596-4 0  9999
2 69865  89.0066  60.9032 0030182 222.5620 137.3235 14.26769160  1432
QIANFAN-237             
1 69866U 26155U   26196.57331538  .00000230  00000+0  88768-4 0  9998
2 69866  89.0066  60.9032 0030155 222.5908 137.2948 14.26777431  1421
QIANFAN-238             
1 69867U 26155V   26196.57326405  .00000247  00000+0  95630-4 0  9990
2 69867  89.0066  60.9032 0030137 222.6219 137.2637 14.26784879  1438
STARLINK-37886          
1 69943U 26157A   26196.58335648 -.02257999  13529-2 -70608-2 0  9998
2 69943  53.1608 293.9721 0000959  61.1072  45.8754 15.90998621  2217
STARLINK-37937          
1 69944U 26157B   26196.58335648 -.02248233  13426-2 -70096-2 0  9997
2 69944  53.1608 293.9694 0000965  65.5260  42.6791 15.91054986  2215
STARLINK-37903          
1 69945U 26157C   26196.58335648 -.02208975  13047-2 -67260-2 0  9995
2 69945  53.1606 293.9535 0001013  40.7813  75.1116 15.91511296  2216
STARLINK-37905          
1 69946U 26157D   26196.58335648 -.02222374  13310-2 -64856-2 0  9996
2 69946  53.1606 293.9282 0001309  78.1921  49.8165 15.92330809  2211
STARLINK-37904          
1 69947U 26157E   26196.58335648 -.02213700  13232-2 -64089-2 0  9991
2 69947  53.1606 293.9239 0001028  49.3955  80.7217 15.92483661  2216
STARLINK-37891          
1 69948U 26157F   26196.58335648 -.02218793  13307-2 -63839-2 0  9994
2 69948  53.1606 293.9166 0001623  57.4531  76.1797 15.92601726  2213
STARLINK-37923          
1 69949U 26157G   26196.58335648 -.02214801  13357-2 -61488-2 0  9994
2 69949  53.1606 293.8942 0001088  49.3412  95.0224 15.93283789  2219
STARLINK-37895          
1 69950U 26157H   26196.58335648 -.02214659  13395-2 -60574-2 0  9994
2 69950  53.1606 293.8843 0001503  80.1563  68.9383 15.93565477  2215
STARLINK-37841          
1 69951U 26157J   26196.58335648 -.02212807  13434-2 -59187-2 0  9990
2 69951  53.1604 293.8710 0001481  80.6313  74.8390 15.93986544  2216
STARLINK-37899          
1 69952U 26157K   26196.58335648 -.02225676  13648-2 -58143-2 0  9997
2 69952  53.1604 293.8560 0001428  66.9838  95.6540 15.94431053  2219
STARLINK-37900          
1 69953U 26157L   26196.58335648 -.02207947  13459-2 -57321-2 0  9996
2 69953  53.1603 293.8516 0001449  66.3385  98.4174 15.94546357  2212
STARLINK-37882          
1 69954U 26157M   26196.58335648 -.02195635  13376-2 -55765-2 0  9995
2 69954  53.1604 293.8391 0001431  66.8175 103.9166 15.94954461  2210
STARLINK-37928          
1 69955U 26157N   26196.58335648 -.02221345  13671-2 -56506-2 0  9996
2 69955  53.1603 293.8356 0001446  68.6336 103.8979 15.94927841  2219
STARLINK-37824          
1 69956U 26157P   26196.58335648 -.02209930  13541-2 -56155-2 0  9999
2 69956  53.1603 293.8340 0001374  67.0630 106.1961 15.94946949  2210
STARLINK-37919          
1 69957U 26157Q   26196.58335648 -.02206765  13501-2 -56135-2 0  9997
2 69957  53.1604 293.8309 0001462  82.9682  91.7183 15.94926363  2211
STARLINK-37964          
1 69958U 26157R   26196.58335648 -.02175748  13178-2 -54595-2 0  9992
2 69958  53.1603 293.8239 0001449  86.7712  91.2524 15.95177510  2211
STARLINK-37907          
1 69959U 26157S   26196.58335648 -.02166181  13120-2 -53308-2 0  9992
2 69959  53.1603 293.8135 0001485  81.8444 101.1989 15.95536477  2212
STARLINK-37901          
1 69960U 26157T   26196.58335648 -.02165532  13141-2 -52721-2 0  9994
2 69960  53.1601 293.8055 0001553  83.1647 103.7539 15.95735365  2215
STARLINK-37910          
1 69961U 26157U   26196.58335648 -.02163036  13159-2 -51737-2 0  9997
2 69961  53.1601 293.7938 0001420  87.5973 104.9359 15.96061072  2219
STARLINK-37925          
1 69962U 26157V   26196.58335648 -.02170281  13249-2 -51802-2 0  9991
2 69962  53.1600 293.7904 0001407  82.7741 111.3749 15.96100046  2217
STARLINK-37931          
1 69963U 26157W   26196.58335648 -.02207958  13704-2 -52448-2 0  9997
2 69963  53.1599 293.7838 0001350  68.1126 129.2447 15.96192035  2215
STARLINK-37914          
1 69964U 26157X   26196.58335648 -.02191418  13608-2 -50228-2 0  9998
2 69964  53.1599 293.7643 0001365  69.7100 136.9295 15.96842921  2217
STARLINK-37840          
1 69965U 26157Y   26196.58335648 -.02191903  13650-2 -49588-2 0  9992
2 69965  53.1599 293.7552 0001345  69.6467 141.2942 15.97079945  2217
STARLINK-37894          
1 69966U 26157Z   26196.58335648 -.02187658  13601-2 -49469-2 0  9999
2 69966  53.1597 293.7505 0001254  97.0390 116.1354 15.97088340  2210
STARLINK-37875          
1 69967U 26157AA  26196.58335648 -.02199640  13802-2 -48733-2 0  9990
2 69967  53.1596 293.7397 0001299  75.6182 142.7206 15.97459147  2217
